[{"OBJECT_NAME":"STARLINK-2616","OBJECT_ID":"2021-044BK","EPOCH":"2026-03-10T00:00:02.999808","MEAN_MOTION":15.30147581,"ECCENTRICITY":0.00013507,"INCLINATION":53.1598,"RA_OF_ASC_NODE":76.3491,"ARG_OF_PERICENTER":99.3044,"MEAN_ANOMALY":220.8657,"EPHEMERIS_TYPE":0,"CLASSIFICATION_TYPE":"U","NORAD_CAT_ID":48695,"ELEMENT_SET_NO":999,"REV_AT_EPOCH":586,"BSTAR":0.001540368,"MEAN_MOTION_DOT":0.00045467,"MEAN_MOTION_DDOT":0},{"OBJECT_NAME":"GHGSAT-C5","OBJECT_ID":"2022-057N","EPOCH":"2026-03-09T21:50:12.501024","MEAN_MOTION":15.32921902,"ECCENTRICITY":0.00082696,"INCLINATION":97.6522,"RA_OF_ASC_NODE":212.4963,"ARG_OF_PERICENTER":109.8004,"MEAN_ANOMALY":250.413,"EPHEMERIS_TYPE":0,"CLASSIFICATION_TYPE":"U","NORAD_CAT_ID":52744,"ELEMENT_SET_NO":999,"REV_AT_EPOCH":21032,"BSTAR":0.00029214604,"MEAN_MOTION_DOT":9.218e-5,"MEAN_MOTION_DDOT":0}]
